0 TBA - TO BE ASSIGNED
1 85061U          19154.92874007 -.00000657 +00000+0 -28567-2 0  9996
2 85061 102.5564 280.2203 0308108  84.4784  39.3121 12.61540389253858
0 TBA - TO BE ASSIGNED
1 85047U          19154.70671231 +.00003582 +00000+0 +97896-2 0  9999
2 85047 102.4538  68.1501 0249631  35.9094 325.8500 13.04287610262819
0 TBA - TO BE ASSIGNED
1 85027U          19156.46742795 -.00000030 +00000+0 +47055-4 0  9996
2 85027  66.0400 168.3695 0175637  11.6776 348.8279 13.73217122277438
0 TBA - TO BE ASSIGNED
1 85025U          19154.53976463 +.00001131 +00000-0 +86828-3 0  9994
2 85025 082.5388 192.9909 0024702 055.6905 304.6593 13.92285532233154
0 TBA - TO BE ASSIGNED
1 85023U          19156.24992192 +.00000747 +00000+0 +34509-3 0  9999
2 85023  99.8736 163.7529 0001985  55.4450   2.1827 14.24591075287118
0 TBA - TO BE ASSIGNED
1 85011U          19158.60225768 +.00003963 +00000+0 +18553-2 0  9999
2 85011  70.9868 133.6478 0016354 218.9069 141.0881 14.20748225 83639
0 TBA - TO BE ASSIGNED
1 85010U          19155.49893812 +.00000256 +00000+0 +33945-3 0  9998
2 85010  99.4326  47.4022 0028405 349.6291 134.3851 13.70254310277132
0 TBA - TO BE ASSIGNED
1 85004U          19155.99990730 +.00000107 +00000+0 +50648-4 0  9998
2 85004  98.2679 176.9267 0052558 103.4582 287.5150 14.35595519289819
0 TBA - TO BE ASSIGNED
1 85001U          19158.82917353 +.00025323 +00000+0 +36367-2 0  9997
2 85001  51.4566  84.4335 2944583  37.5830 339.8178  9.30979628202333
0 TBA - TO BE ASSIGNED
1 84136U          19157.32096871 +.00013911 +00000+0 +11895-2 0  9991
2 84136  51.4166 135.6848 2325862 194.4730 157.6498 10.60950868244247
0 TBA - TO BE ASSIGNED
1 82991U          19154.13438733 +.00001816 +00000+0 +35730-3 0  9997
2 82991  86.3174 295.9818 0008857 334.0738  26.0028 14.62060678135432
0 TBA - TO BE ASSIGNED
1 82965U 70025    19156.87023666 +.00000331 +00000+0 +54825-3 0  9997
2 82965 100.1602 125.1569 0001720  39.7608 320.3653 13.55088088201432
0 TBA - TO BE ASSIGNED
1 82961U          19154.90340395 +.00002245 +00000+0 +51768-2 0  9990
2 82961  99.8807 148.0591 0515650   9.0318 351.9639 12.86032297246446
0 TBA - TO BE ASSIGNED
1 82959U          19156.34764025 +.00000187 +00000+0 +13766-3 0  9997
2 82959 100.1099   3.4935 0050923 246.5744 113.0063 14.09170098207888
0 TBA - TO BE ASSIGNED
1 82915U          19156.78156639 +.00001876 +00000+0 +34927-3 0  9991
2 82915  74.0214 192.9023 0023136  96.2466 264.1339 14.65666320132338
0 TBA - TO BE ASSIGNED
1 82893U          19154.67652670 +.00000711 +00000+0 +45823-3 0  9992
2 82893  98.9975 232.8528 0031652 299.0217  60.7781 14.06096084 87323
0 TBA - TO BE ASSIGNED
1 82891U          19156.44588595 +.00000204 +00000+0 +35726-4 0  9990
2 82891  97.8358 225.2848 0013632 216.8726 143.1548 14.77339991 86416
0 TBA - TO BE ASSIGNED
1 82875U          19155.89564321 +.00000051 +00000+0 +29741-4 0  9991
2 82875  98.6851 188.9240 0393206 252.7315 103.0480 14.10646982208220
0 TBA - TO BE ASSIGNED
1 82873U          19156.26601384 +.00000368 +00000+0 +23632-3 0  9995
2 82873  99.9992  94.1198 0047388 327.0194  32.8019 14.10051441284452
0 TBA - TO BE ASSIGNED
1 82820U          19156.06372614 +.00000464 +00000+0 +23784-3 0  9991
2 82820  99.7991  16.5378 0059005 217.8000 141.9022 14.20245220286459
0 TBA - TO BE ASSIGNED
1 82785U          19156.52940108 +.00000366 +00000+0 +12681-3 0  9996
2 82785  63.1389 206.0008 0290131 338.5210  85.7070 14.29323547288483
0 TBA - TO BE ASSIGNED
1 82783U          19156.46801742 +.00000931 +00000+0 +28159-2 0  9991
2 82783  90.3380 326.8120 0024389  29.6476 330.6027 13.05953007193103
0 TBA - TO BE ASSIGNED
1 82759U          19155.24130731 +.00002218 +00000+0 +51645-3 0  9999
2 82759  98.3396 245.3342 0017019 208.9210 151.1045 14.55749150 76005
0 TBA - TO BE ASSIGNED
1 82755U          19154.70448596 +.00002044 +00000+0 +40100-3 0  9997
2 82755  99.8164  69.0443 0002303   9.4580 350.6660 14.64153906294152
0 TBA - TO BE ASSIGNED
1 82748U          19157.51733407 +.00011663 +00000+0 +40784-2 0  9993
2 82748 102.8122  12.0623 0034145  65.5825 294.8901 14.35108993208511
0 TBA - TO BE ASSIGNED
1 82741U          19154.81214903 +.00000927 +00000+0 +12441-2 0  9991
2 82741 102.8844 144.8142 0212706 136.2581 225.5616 13.55261793273291
0 TBA - TO BE ASSIGNED
1 82737U          19157.51674210 +.00004087 +00000+0 +64786-2 0  9997
2 82737 102.7808   0.6007 0305210 272.9611  83.6619 13.33524577225290
0 TBA - TO BE ASSIGNED
1 82728U          19155.30204088 +.00005964 +00000+0 +24442-2 0  9994
2 82728 100.0511 186.7452 0187386   7.2190 353.1612 14.18506354756110
0 TBA - TO BE ASSIGNED
1 82698U          19157.00387374 +.00000431 +00000+0 +30249-3 0  9996
2 82698  61.6073 347.7834 0739097 146.8084 218.1620 13.21024772223141
0 TBA - TO BE ASSIGNED
1 82693U          19154.07855477 +.00000573 +00000+0 +84225-3 0  9999
2 82693 100.5353 256.8509 0050132 134.1687 226.3587 13.58974323229048
0 TBA - TO BE ASSIGNED
1 82686U          19155.01061039 +.00000175 +00000+0 +54351-4 0  9995
2 82686  97.9518 173.1434 0201756  33.8910 327.4984 14.40911848194246
0 TBA - TO BE ASSIGNED
1 82683U 99057    19157.11240673 +.00000116 +00000+0 +63984-4 0  9995
2 82683  98.1591  36.6760 0229683 119.1749 243.2618 14.13291898125394
0 TBA - TO BE ASSIGNED
1 82642U          19156.99995903 +.00000004 +00000+0 +30822-4 0  9999
2 82642  99.0338  67.8803 0141765 353.1167   6.8047 13.98563778282596
0 TBA - TO BE ASSIGNED
1 82627U          19156.93982432 +.00000545 +00000+0 +14646-2 0  9993
2 82627  82.4766 141.1965 0004258 310.7445  78.1659 13.13270949265941
0 TBA - TO BE ASSIGNED
1 82617U          19156.98214988 +.00000067 +00000+0 +26123-4 0  9995
2 82617  74.0295  17.0362 0041149 188.5820 171.4640 14.46104252292312
0 TBA - TO BE ASSIGNED
1 82616U          19155.21981831 +.00002712 +00000+0 +38715-3 0  9995
2 82616  97.2725 316.6915 0103894 225.6706 133.5954 14.73790590213192
0 TBA - TO BE ASSIGNED
1 82597U          19154.65708353 +.00000212 +00000+0 +11221-3 0  9992
2 82597  66.7735 247.7684 0112822 272.0234  86.7947 14.27907128288078
0 TBA - TO BE ASSIGNED
1 82576U          19152.20318130 +.00000313 +00000+0 +23610-3 0  9995
2 82576  99.2987 156.3878 0119490  80.0541 281.4084 13.98312485185728
0 TBA - TO BE ASSIGNED
1 82560U          19157.25023237 +.00000232 +00000+0 +24943-3 0  9999
2 82560  99.9747 264.4801 0011322  69.9575 320.1152 13.84889520281804
0 TBA - TO BE ASSIGNED
1 82545U          19154.78662755 -.00000041 +00000+0 +40660-4 0  9995
2 82545  64.8857  80.1525 0171071  25.2159 335.6999 11.30769701169359
0 TBA - TO BE ASSIGNED
1 82526U          19157.50565741 +.00000276 +00000-0 +20789-3 0  9993
2 82526 099.2734 175.7935 0114044 041.9407 319.0422 13.99671614187920
0 TBA - TO BE ASSIGNED
1 82524U          19154.82740921 +.00000438 +00000+0 +21332-3 0  9992
2 82524  73.2910 317.0870 0176677 182.8962 246.4907 14.13723745238801
0 TBA - TO BE ASSIGNED
1 82517U          19155.38142003 +.00001384 +00000+0 +42895-3 0  9991
2 82517  86.3943  16.6958 0012265 206.4196 153.6380 14.40476732 79209
0 TBA - TO BE ASSIGNED
1 82494U 93036    19157.87154461 +.00000361 +00000+0 +10380-3 0  9991
2 82494  74.0217 226.4524 0011991 228.4181 131.5951 14.48356960136979
0 TBA - TO BE ASSIGNED
1 82484U          19158.42943943 +.00000026 +00000+0 +99212-4 0  9992
2 82484  99.6198 238.6974 0045249  78.1402 282.4804 13.55038350268204
0 TBA - TO BE ASSIGNED
1 82481U          19158.14522642 +.00006124 +00000+0 +48790-3 0  9996
2 82481  99.0202 279.1498 0040419 171.2969 188.8960 15.00181170 99091
0 TBA - TO BE ASSIGNED
1 82464U          19156.73913490 +.00001189 +00000+0 +38066-3 0  9996
2 82464  71.0005 280.4781 0084009 259.1898 170.2810 14.39672442289989
0 TBA - TO BE ASSIGNED
1 82453U          19157.81970557 -.00000008 +00000+0 +27156-3 0  9999
2 82453 101.8366 117.1622 0093522 310.7805  48.5172 12.39467475251052
0 TBA - TO BE ASSIGNED
1 82451U          19158.43181408 +.00001756 +00000+0 +23308-3 0  9990
2 82451  66.5379 171.1741 0293831  72.3341 290.9619 14.56853338783589
0 TBA - TO BE ASSIGNED
1 82448U          19158.03085350 +.00000279 +00000+0 +29484-4 0  9992
2 82448  85.8780   2.4594 0013157  59.1502 301.1014 14.84802965 82677
0 TBA - TO BE ASSIGNED
1 82432U 93036    19157.41572577 +.00000163 +00000+0 +48356-4 0  9990
2 82432  74.0079 157.5546 0064218 181.6290 178.4672 14.50124887137173
0 TBA - TO BE ASSIGNED
1 82428U          19158.55817517 +.00004277 +00000+0 +50432-2 0  9992
2 82428  63.1603 247.6066 0037030  31.6114 328.7136 13.68827753 91229
0 TBA - TO BE ASSIGNED
1 82427U          19158.51688294 +.00012508 +00000+0 +21651-2 0  9992
2 82427  98.4125 258.3051 0008237 170.5584 189.5776 14.68446225 82968
0 TBA - TO BE ASSIGNED
1 82405U          19158.22594678 +.00000175 +00000+0 +33528-4 0  9993
2 82405  98.1127 244.4012 0043088 123.5119 237.0217 14.74955562 87310
0 TBA - TO BE ASSIGNED
1 82402U          19157.80380145 +.00000281 +00000+0 +29721-4 0  9993
2 82402  86.6704  80.6292 0012933  40.1602 320.0575 14.84853352100070
0 TBA - TO BE ASSIGNED
1 82383U          19158.25115571 +.00001873 +00000+0 +29865-3 0  9996
2 82383  98.3268 170.5490 0005810 354.4388   5.6753 14.73173058194826
0 TBA - TO BE ASSIGNED
1 82381U          19157.95671972 +.00000862 +00000+0 +30406-3 0  9992
2 82381  98.5150 349.4399 0018650 158.4673 201.7302 14.37153448166476
0 TBA - TO BE ASSIGNED
1 82369U 99025    19158.29303310 +.00000215 +00000+0 +18026-3 0  9995
2 82369  99.1317 188.4909 0085407  46.4627 314.3589 13.96894255224735
0 TBA - TO BE ASSIGNED
1 82322U          19157.30054421 +.00000842 +00000+0 +22335-3 0  9990
2 82322  98.6334 192.6129 0082855 150.6760 209.9120 14.49372835218779
0 TBA - TO BE ASSIGNED
1 82320U          19157.97985188 +.00000444 +00000+0 +17918-3 0  9993
2 82320  99.8140  60.3779 0162259 157.4229 203.4192 14.26871900288114
0 TBA - TO BE ASSIGNED
1 82314U          19156.73823028 +.00002987 +00000+0 +15494-3 0  9994
2 82314  99.2188  74.8932 0215214  60.2058 302.0373 14.99388919183209
